[
  {
    "name": "ONEWEB-0236",
    "noradId": "48797",
    "line1": "1 48797U 21045AG  26186.27748568  .00000044  00000+0  82043-4 0  9995",
    "line2": "2 48797  87.8992 255.6021 0002148  97.1558 262.9817 13.15548002246636"
  },
  {
    "name": "ONEWEB-0248",
    "noradId": "48798",
    "line1": "1 48798U 21045AH  26186.21410050 -.00000092  00000+0 -27893-3 0  9998",
    "line2": "2 48798  87.9004 255.6000 0002230 111.6512 248.4856 13.15549271246780"
  },
  {
    "name": "ONEWEB-0225",
    "noradId": "48799",
    "line1": "1 48799U 21045AJ  26186.23628520 -.00000053  00000+0 -17513-3 0  9999",
    "line2": "2 48799  87.8997 255.6031 0001964 115.8253 244.3080 13.15547431246797"
  },
  {
    "name": "ONEWEB-0215",
    "noradId": "48800",
    "line1": "1 48800U 21045AK  26186.20617722  .00000002  00000+0 -27517-4 0  9990",
    "line2": "2 48800  87.9005 255.5926 0002113 118.5656 241.5687 13.15549050246664"
  },
  {
    "name": "ONEWEB-0216",
    "noradId": "48801",
    "line1": "1 48801U 21045AL  26186.21568458 -.00000092  00000+0 -27726-3 0  9994",
    "line2": "2 48801  87.9000 255.6048 0001985  97.6987 262.4369 13.15548196246676"
  },
  {
    "name": "ONEWEB-0239",
    "noradId": "48802",
    "line1": "1 48802U 21045AM  26186.22043745 -.00000052  00000+0 -17328-3 0  9996",
    "line2": "2 48802  87.8991 255.6088 0002409 118.5535 241.5838 13.15547794246710"
  },
  {
    "name": "ONEWEB-0249",
    "noradId": "48967",
    "line1": "1 48967U 21060A   26186.14014891  .00000038  00000+0  64868-4 0  9990",
    "line2": "2 48967  87.9083 225.2124 0002138  97.7965 262.3409 13.16595867241976"
  },
  {
    "name": "ONEWEB-0250",
    "noradId": "48968",
    "line1": "1 48968U 21060B   26186.49525948  .00000079  00000+0  14919-3 0  9995",
    "line2": "2 48968  87.9084 222.8384 0003124  95.7979 264.3513 13.25834647242643"
  },
  {
    "name": "ONEWEB-0252",
    "noradId": "48970",
    "line1": "1 48970U 21060D   26186.55103117  .00000100  00000+0  22826-3 0  9996",
    "line2": "2 48970  87.9080 225.1230 0001817  94.4103 265.7235 13.16594788242072"
  },
  {
    "name": "ONEWEB-0253",
    "noradId": "48971",
    "line1": "1 48971U 21060E   26186.53994961  .00000030  00000+0  45738-4 0  9990",
    "line2": "2 48971  87.9081 225.1307 0002171  97.0587 263.0791 13.16594645242001"
  },
  {
    "name": "ONEWEB-0254",
    "noradId": "48972",
    "line1": "1 48972U 21060F   26186.54944663  .00000085  00000+0  18873-3 0  9995",
    "line2": "2 48972  87.9083 225.1267 0002194 103.2850 256.8526 13.16593478242006"
  },
  {
    "name": "ONEWEB-0255",
    "noradId": "48973",
    "line1": "1 48973U 21060G   26186.51144708 -.00000004  00000+0 -45087-4 0  9996",
    "line2": "2 48973  87.9085 225.1405 0002098 100.2764 259.8603 13.16593281242075"
  },
  {
    "name": "ONEWEB-0256",
    "noradId": "48974",
    "line1": "1 48974U 21060H   26186.53757381 -.00000004  00000+0 -44508-4 0  9993",
    "line2": "2 48974  87.9076 225.1386 0002019  92.2529 267.8833 13.16594013242041"
  },
  {
    "name": "ONEWEB-0257",
    "noradId": "48975",
    "line1": "1 48975U 21060J   26186.19004076  .00000049  00000+0  94597-4 0  9992",
    "line2": "2 48975  87.9084 225.1956 0001977  98.2425 261.8930 13.16593583241959"
  },
  {
    "name": "ONEWEB-0258",
    "noradId": "48976",
    "line1": "1 48976U 21060K   26186.11562926  .00000073  00000+0  15733-3 0  9999",
    "line2": "2 48976  87.9084 225.2225 0002110  95.9773 264.1598 13.16594336241953"
  },
  {
    "name": "ONEWEB-0259",
    "noradId": "48977",
    "line1": "1 48977U 21060L   26186.18529245  .00000091  00000+0  20441-3 0  9996",
    "line2": "2 48977  87.9083 225.2076 0002191  98.8181 261.3198 13.16593626241991"
  },
  {
    "name": "ONEWEB-0260",
    "noradId": "48978",
    "line1": "1 48978U 21060M   26186.55656258  .00000133  00000+0  31500-3 0  9998",
    "line2": "2 48978  87.9078 225.1346 0001715  89.2174 270.9153 13.16594955242020"
  },
  {
    "name": "ONEWEB-0261",
    "noradId": "48979",
    "line1": "1 48979U 21060N   26186.14650488  .00000009  00000+0 -90359-5 0  9995",
    "line2": "2 48979  87.9080 225.2167 0001919 103.7590 256.3755 13.16593412242029"
  },
  {
    "name": "ONEWEB-0262",
    "noradId": "48980",
    "line1": "1 48980U 21060P   26186.50669557  .00000031  00000+0  46901-4 0  9991",
    "line2": "2 48980  87.9084 225.1314 0002294  99.7347 260.4043 13.16593437242033"
  },
  {
    "name": "ONEWEB-0263",
    "noradId": "48981",
    "line1": "1 48981U 21060Q   26186.53835850  .00000042  00000+0  75685-4 0  9999",
    "line2": "2 48981  87.9083 225.1370 0002014 104.7557 255.3797 13.16593511242004"
  },
  {
    "name": "ONEWEB-0264",
    "noradId": "48982",
    "line1": "1 48982U 21060R   26186.19556865 -.00000049  00000+0 -16078-3 0  9997",
    "line2": "2 48982  87.9078 225.2076 0001856  97.3699 262.7643 13.16597106241960"
  },
  {
    "name": "ONEWEB-0266",
    "noradId": "48984",
    "line1": "1 48984U 21060T   26186.14096029  .00000025  00000+0  32063-4 0  9990",
    "line2": "2 48984  87.9084 225.2095 0002141  93.6675 266.4700 13.16595535241948"
  },
  {
    "name": "ONEWEB-0267",
    "noradId": "48985",
    "line1": "1 48985U 21060U   26186.53202887  .00000005  00000+0 -21145-4 0  9993",
    "line2": "2 48985  87.9082 225.1285 0001944 100.0056 260.1294 13.16593548242002"
  },
  {
    "name": "ONEWEB-0268",
    "noradId": "48986",
    "line1": "1 48986U 21060V   26186.19637262 -.00000008  00000+0 -54736-4 0  9991",
    "line2": "2 48986  87.9083 225.2045 0001973  92.6264 267.5092 13.16593233242220"
  },
  {
    "name": "ONEWEB-0269",
    "noradId": "48987",
    "line1": "1 48987U 21060W   26186.55736030  .00000090  00000+0  20290-3 0  9991",
    "line2": "2 48987  87.9074 225.1338 0002031  89.4714 270.6649 13.16593296242047"
  },
  {
    "name": "ONEWEB-0270",
    "noradId": "48988",
    "line1": "1 48988U 21060X   26186.49878154  .00000030  00000+0  45460-4 0  9990",
    "line2": "2 48988  87.9085 225.1465 0002188 104.6556 255.4818 13.16593792242071"
  },
  {
    "name": "ONEWEB-0271",
    "noradId": "48989",
    "line1": "1 48989U 21060Y   26186.18212833  .00000072  00000+0  15411-3 0  9991",
    "line2": "2 48989  87.9083 225.1989 0002002 102.1518 257.9838 13.16593497242034"
  },
  {
    "name": "ONEWEB-0272",
    "noradId": "48990",
    "line1": "1 48990U 21060Z   26186.12830183  .00000038  00000+0  66433-4 0  9994",
    "line2": "2 48990  87.9077 225.2207 0001746  94.6902 265.4429 13.16595166241976"
  },
  {
    "name": "ONEWEB-0273",
    "noradId": "48991",
    "line1": "1 48991U 21060AA  26186.53044298 -.00000049  00000+0 -16267-3 0  9997",
    "line2": "2 48991  87.9081 225.1411 0002087  99.0969 261.0398 13.16593822242008"
  },
  {
    "name": "ONEWEB-0274",
    "noradId": "48992",
    "line1": "1 48992U 21060AB  26186.55577377  .00000105  00000+0  24110-3 0  9996",
    "line2": "2 48992  87.9074 225.1368 0001749  91.7396 268.3935 13.16595170242048"
  }
]