OBJECT_NAME,OBJECT_ID,EPOCH,MEAN_MOTION,ECCENTRICITY,INCLINATION,RA_OF_ASC_NODE,ARG_OF_PERICENTER,MEAN_ANOMALY,EPHEMERIS_TYPE,CLASSIFICATION_TYPE,NORAD_CAT_ID,ELEMENT_SET_NO,REV_AT_EPOCH,BSTAR,MEAN_MOTION_DOT,MEAN_MOTION_DDOT
ONEWEB-0236,2021-045AG,2026-07-05T06:39:34.763616,13.15548002,.00021484,87.8992,255.6021,97.1558,262.9817,0,U,48797,999,24663,.82042525E-4,.44E-6,0
ONEWEB-0248,2021-045AH,2026-07-05T05:08:18.283200,13.15549271,.00022301,87.9004,255.6000,111.6512,248.4856,0,U,48798,999,24678,-.27893399E-3,-.92E-6,0
ONEWEB-0225,2021-045AJ,2026-07-05T05:40:15.041280,13.15547431,.00019641,87.8997,255.6031,115.8253,244.3080,0,U,48799,999,24679,-.17512976E-3,-.53E-6,0
ONEWEB-0215,2021-045AK,2026-07-05T04:56:53.712672,13.15549050,.00021131,87.9005,255.5926,118.5656,241.5687,0,U,48800,999,24666,-.27516867E-4,.2E-7,0
ONEWEB-0216,2021-045AL,2026-07-05T05:10:35.148576,13.15548196,.00019854,87.9000,255.6048,97.6987,262.4369,0,U,48801,999,24667,-.27726399E-3,-.92E-6,0
ONEWEB-0239,2021-045AM,2026-07-05T05:17:25.795680,13.15547794,.0002409,87.8991,255.6088,118.5535,241.5838,0,U,48802,999,24671,-.17328E-3,-.52E-6,0
ONEWEB-0249,2021-060A,2026-07-05T03:21:48.865824,13.16595867,.0002138,87.9083,225.2124,97.7965,262.3409,0,U,48967,999,24197,.64868E-4,.38E-6,0
ONEWEB-0250,2021-060B,2026-07-05T11:53:10.419072,13.25834647,.0003124,87.9084,222.8384,95.7979,264.3513,0,U,48968,999,24264,.14919E-3,.79E-6,0
ONEWEB-0252,2021-060D,2026-07-05T13:13:29.093088,13.16594788,.00018179,87.9080,225.1230,94.4103,265.7235,0,U,48970,999,24207,.22826019E-3,.1E-5,0
ONEWEB-0253,2021-060E,2026-07-05T12:57:31.646304,13.16594645,.0002171,87.9081,225.1307,97.0587,263.0791,0,U,48971,999,24200,.45737798E-4,.3E-6,0
ONEWEB-0254,2021-060F,2026-07-05T13:11:12.188832,13.16593478,.00021944,87.9083,225.1267,103.2850,256.8526,0,U,48972,999,24200,.18873015E-3,.85E-6,0
ONEWEB-0255,2021-060G,2026-07-05T12:16:29.028576,13.16593282,.00020983,87.9085,225.1405,100.2764,259.8603,0,U,48973,999,24207,-.45087117E-4,-.4E-7,0
ONEWEB-0256,2021-060H,2026-07-05T12:54:06.377184,13.16594013,.00020199,87.9076,225.1386,92.2529,267.8833,0,U,48974,999,24204,-.44507571E-4,-.4E-7,0
ONEWEB-0257,2021-060J,2026-07-05T04:33:39.522528,13.16593583,.00019771,87.9084,225.1956,98.2425,261.8930,0,U,48975,999,24195,.945969E-4,.49E-6,0
ONEWEB-0258,2021-060K,2026-07-05T02:46:30.368928,13.16594336,.00021099,87.9084,225.2225,95.9773,264.1598,0,U,48976,999,24195,.15733285E-3,.73E-6,0
ONEWEB-0259,2021-060L,2026-07-05T04:26:49.268544,13.16593626,.00021908,87.9083,225.2076,98.8181,261.3198,0,U,48977,999,24199,.20441217E-3,.91E-6,0
ONEWEB-0260,2021-060M,2026-07-05T13:21:27.006912,13.16594955,.00017152,87.9078,225.1346,89.2174,270.9153,0,U,48978,999,24202,.31500395E-3,.133E-5,0
ONEWEB-0261,2021-060N,2026-07-05T03:30:58.022496,13.16593412,.0001919,87.9080,225.2167,103.7590,256.3755,0,U,48979,999,24202,-.9035935E-5,.9E-7,0
ONEWEB-0262,2021-060P,2026-07-05T12:09:38.497248,13.16593437,.00022937,87.9084,225.1314,99.7347,260.4043,0,U,48980,999,24203,.46900653E-4,.31E-6,0
ONEWEB-0263,2021-060Q,2026-07-05T12:55:14.174400,13.16593511,.00020146,87.9083,225.1370,104.7557,255.3797,0,U,48981,999,24200,.75685377E-4,.42E-6,0
ONEWEB-0264,2021-060R,2026-07-05T04:41:37.131360,13.16597106,.00018558,87.9078,225.2076,97.3699,262.7643,0,U,48982,999,24196,-.16078306E-3,-.49E-6,0
ONEWEB-0266,2021-060T,2026-07-05T03:22:58.969056,13.16595535,.0002141,87.9084,225.2095,93.6675,266.4700,0,U,48984,999,24194,.32063E-4,.25E-6,0
ONEWEB-0267,2021-060U,2026-07-05T12:46:07.294368,13.16593548,.00019448,87.9082,225.1285,100.0056,260.1294,0,U,48985,999,24200,-.2114488E-4,.5E-7,0
ONEWEB-0268,2021-060V,2026-07-05T04:42:46.594368,13.16593233,.0001973,87.9083,225.2045,92.6264,267.5092,0,U,48986,999,24222,-.54736E-4,-.8E-7,0
ONEWEB-0269,2021-060W,2026-07-05T13:22:35.929920,13.16593296,.00020315,87.9074,225.1338,89.4714,270.6649,0,U,48987,999,24204,.20290377E-3,.9E-6,0
ONEWEB-0270,2021-060X,2026-07-05T11:58:14.725056,13.16593792,.0002188,87.9085,225.1465,104.6556,255.4818,0,U,48988,999,24207,.4546E-4,.3E-6,0
ONEWEB-0271,2021-060Y,2026-07-05T04:22:15.887712,13.16593497,.0002002,87.9083,225.1989,102.1518,257.9838,0,U,48989,999,24203,.15411E-3,.72E-6,0
ONEWEB-0272,2021-060Z,2026-07-05T03:04:45.278112,13.16595166,.0001746,87.9077,225.2207,94.6902,265.4429,0,U,48990,999,24197,.66433E-4,.38E-6,0
ONEWEB-0273,2021-060AA,2026-07-05T12:43:50.273472,13.16593822,.00020873,87.9081,225.1411,99.0969,261.0398,0,U,48991,999,24200,-.16267171E-3,-.49E-6,0
ONEWEB-0274,2021-060AB,2026-07-05T13:20:18.853728,13.16595170,.00017497,87.9074,225.1368,91.7396,268.3935,0,U,48992,999,24204,.24110026E-3,.105E-5,0
